SPACEMOBILE-008         
1 69589U 26139A   26197.20988308  .00000129  00000+0  24228-4 0  9994
2 69589  52.9949 130.8006 0005109  58.8976 301.2516 15.12802700  4371
SPACEMOBILE-009         
1 69590U 26139B   26197.80654851  .00000255  00000+0  31410-4 0  9996
2 69590  52.9940 128.1083 0005360  56.2913 303.8588 15.12696684  4460
SPACEMOBILE-010         
1 69591U 26139C   26197.54552912  .00000432  00000+0  41587-4 0  9996
2 69591  52.9947 129.3312 0005295  47.6592 312.4847 15.12529797  4431
