OBJECT_NAME,OBJECT_ID,EPOCH,MEAN_MOTION,ECCENTRICITY,INCLINATION,RA_OF_ASC_NODE,ARG_OF_PERICENTER,MEAN_ANOMALY,EPHEMERIS_TYPE,CLASSIFICATION_TYPE,NORAD_CAT_ID,ELEMENT_SET_NO,REV_AT_EPOCH,BSTAR,MEAN_MOTION_DOT,MEAN_MOTION_DDOT
SPACEMOBILE-008,2026-139A,2026-07-16T05:02:13.898112,15.12802700,.0005109,52.9949,130.8006,58.8976,301.2516,0,U,69589,999,437,.24228E-4,.129E-5,0
SPACEMOBILE-009,2026-139B,2026-07-16T19:21:25.791264,15.12696684,.000536,52.9940,128.1083,56.2913,303.8588,0,U,69590,999,446,.3141E-4,.255E-5,0
SPACEMOBILE-010,2026-139C,2026-07-16T13:05:33.715968,15.12529797,.0005295,52.9947,129.3312,47.6592,312.4847,0,U,69591,999,443,.41587E-4,.432E-5,0
